[Satellite]
VERSION=1.1
NAME=RADIO ROSTO (RS-15)
NICKNAME=RS-15
TLE1=1 23439U 94085A   20157.85843036 -.00000057  00000-0 -40356-3 0  9994
TLE2=2 23439  64.8164 265.0000 0148888  44.3933 316.8815 11.27568810 47718
STATUS=0
